IRIDIUM 144             
1 43249U 18030A   24308.91915571  .00001350  00000+0  47475-3 0  9997
2 43249  86.4022 177.1309 0002169  79.1095 281.0344 14.34222039345535
IRIDIUM 149             
1 43250U 18030B   24308.92550076  .00000922  00000+0  32202-3 0  9991
2 43250  86.4019 177.1018 0001954  76.4493 283.6920 14.34218744345551
IRIDIUM 157             
1 43251U 18030C   24308.87475317  .00001216  00000+0  42719-3 0  9991
2 43251  86.4023 177.1630 0001753  81.8258 278.3137 14.34224144345522
IRIDIUM 140             
1 43252U 18030D   24308.89378416  .00000649  00000+0  22471-3 0  9998
2 43252  86.4019 177.1691 0002134  81.7874 278.3563 14.34219449345583
IRIDIUM 145             
1 43253U 18030E   24308.88109567  .00000568  00000+0  19563-3 0  9995
2 43253  86.4022 177.1482 0002259  71.4647 288.6794 14.34214889345514
IRIDIUM 146             
1 43254U 18030F   24308.93184483  .00000406  00000+0  13808-3 0  9999
2 43254  86.4020 177.1408 0002125  75.7369 284.4063 14.34217560345535
IRIDIUM 148             
1 43255U 18030G   24309.17920534  .00001454  00000+0  51216-3 0  9991
2 43255  86.4021 177.0718 0001918  76.9534 283.1876 14.34219723345616
IRIDIUM 142             
1 43256U 18030H   24308.93818716  .00000210  00000+0  67915-4 0  9996
2 43256  86.4024 177.0833 0001955  70.0931 290.0475 14.34217613345534
